OBJECT_NAME,OBJECT_ID,EPOCH,MEAN_MOTION,ECCENTRICITY,INCLINATION,RA_OF_ASC_NODE,ARG_OF_PERICENTER,MEAN_ANOMALY,EPHEMERIS_TYPE,CLASSIFICATION_TYPE,NORAD_CAT_ID,ELEMENT_SET_NO,REV_AT_EPOCH,BSTAR,MEAN_MOTION_DOT,MEAN_MOTION_DDOT
STARLINK-36792,2026-032H,2026-06-06T23:57:30.896064,15.33452938,.00008443,97.2885,345.8492,111.3408,248.7925,0,U,67804,999,1864,.8022048E-3,.25918E-3,0
STARLINK-36782,2026-032J,2026-06-06T18:20:46.224096,15.33453108,.00009689,97.2895,345.7093,139.9117,220.2198,0,U,67805,999,1861,.99357716E-3,.32146E-3,0
STARLINK-36389,2026-032K,2026-06-07T05:49:53.091840,15.33457275,.00010515,97.2833,346.1266,297.6095,62.5041,0,U,67806,999,1868,.61755465E-3,.19922E-3,0
STARLINK-36382,2026-032L,2026-06-07T05:45:58.425984,15.33460206,.0000384,97.2849,346.1293,273.2790,86.8409,0,U,67807,999,1868,.70253733E-3,.22684E-3,0
STARLINK-36811,2026-032M,2026-06-06T18:24:42.835680,15.33450239,.00011747,97.2875,345.7056,101.6377,258.4998,0,U,67808,999,1861,.94493559E-3,.3056E-3,0
STARLINK-36795,2026-032N,2026-06-07T06:01:37.827264,15.33462129,.00009989,97.2868,346.1194,261.2808,98.8322,0,U,67809,999,1868,.82709442E-3,.26735E-3,0
STARLINK-36807,2026-032P,2026-06-06T12:12:45.636192,15.33470136,.0002145,97.2850,345.4461,93.7413,266.4075,0,U,67810,999,1857,.88455E-3,.28614E-3,0
STARLINK-36733,2026-032Q,2026-06-07T06:40:48.132768,15.33449287,.00016677,97.2847,346.2344,86.9150,273.2284,0,U,67811,999,1869,.1230047E-2,.39851E-3,0
STARLINK-36377,2026-032R,2026-06-06T11:49:15.957984,15.33466677,.0002536,97.2859,345.4644,112.6181,247.5330,0,U,67812,999,1857,.94968E-3,.30732E-3,0
STARLINK-36732,2026-032S,2026-06-07T06:44:44.501568,15.33395446,.0001315,97.2880,346.2313,68.1310,292.0072,0,U,67813,999,1869,.6013922E-3,.1936E-3,0
STARLINK-36767,2026-032T,2026-06-07T05:53:48.218208,15.33461981,.00005664,97.2865,346.1261,201.2759,158.8461,0,U,67814,999,1868,.91914939E-3,.29731E-3,0
STARLINK-36797,2026-032U,2026-06-06T12:20:35.316096,15.33471540,.0002172,97.2858,345.4359,91.1892,268.9600,0,U,67815,999,1857,.82898E-3,.26806E-3,0
STARLINK-36343,2026-032V,2026-06-07T06:32:58.152192,15.33450228,.00018658,97.2865,346.2426,84.4235,275.7220,0,U,67816,999,1869,.10595672E-2,.34294E-3,0
STARLINK-36756,2026-032W,2026-06-06T18:16:52.933728,15.33452363,.00008854,97.2879,345.7117,113.1517,246.9819,0,U,67817,999,1860,.88247424E-3,.28529E-3,0
STARLINK-36346,2026-032X,2026-06-07T06:29:03.215040,15.33451273,.0002657,97.2875,346.2500,72.0352,288.1180,0,U,67818,999,1869,.74254518E-3,.2398E-3,0
STARLINK-36788,2026-032Y,2026-06-07T05:38:09.299904,15.33447288,.00018203,97.2858,346.1412,99.2005,260.9443,0,U,67819,999,1868,.76934563E-3,.24846E-3,0
STARLINK-36353,2026-032Z,2026-06-06T23:14:26.689344,15.33449321,.00002545,97.2863,345.8921,274.8414,85.2799,0,U,67820,999,1864,.11601954E-2,.37572E-3,0
STARLINK-36644,2026-033A,2026-06-07T04:41:25.883808,15.27617414,.00007368,43.0018,121.4984,258.0187,102.0582,0,U,67821,999,1836,.77260121E-3,.21083E-3,0
STARLINK-36643,2026-033B,2026-06-06T15:11:03.650496,15.27602943,.00007492,42.9985,125.0273,268.8070,91.2695,0,U,67822,999,1827,.11076308E-2,.30364E-3,0
STARLINK-36646,2026-033C,2026-06-07T04:50:42.575424,15.27628200,.00003732,43.0018,121.5467,237.8324,122.2492,0,U,67823,999,1836,.10077476E-2,.27613E-3,0
STARLINK-36647,2026-033D,2026-06-07T04:35:55.185216,15.27581242,.00001757,43.0065,121.4727,221.2877,138.7962,0,U,67824,999,1836,.57796171E-3,.15677E-3,0
STARLINK-36648,2026-033E,2026-06-07T04:10:00.019776,15.27626972,.00012454,42.9997,121.3176,246.0467,114.0254,0,U,67825,999,1836,.11688925E-2,.3209E-3,0
STARLINK-35865,2026-033F,2026-06-07T04:46:59.478528,15.27586261,.00002239,43.0062,121.5220,264.0475,96.0351,0,U,67826,999,1836,.37458055E-3,.10062E-3,0
STARLINK-36289,2026-033G,2026-06-06T15:20:17.591136,15.27616958,.00037355,43.0029,125.0705,277.4429,82.5998,0,U,67827,999,1827,.87246116E-3,.23854E-3,0
STARLINK-36670,2026-033H,2026-06-06T01:07:20.348256,15.27580980,.00021176,43.0029,128.3606,261.0391,99.0221,0,U,67828,999,1818,.89908968E-3,.24563E-3,0
STARLINK-36144,2026-033J,2026-06-06T15:07:20.801568,15.27609513,.00026048,43.0028,124.9978,265.1448,94.9107,0,U,67829,999,1827,.13533368E-2,.37202E-3,0
STARLINK-36611,2026-033K,2026-06-07T04:06:29.072448,15.27615469,.00015992,43.0009,122.1794,280.4699,79.5973,0,U,67830,999,1835,.64480681E-3,.17543E-3,0
STARLINK-36661,2026-033L,2026-06-07T04:00:57.290400,15.27598057,.0002911,43.0130,122.1558,262.3705,97.6817,0,U,67831,999,1835,.70435257E-3,.19182E-3,0
STARLINK-36662,2026-033M,2026-06-05T15:14:09.724992,15.27599887,.00018231,43.0052,123.3637,275.6320,84.4324,0,U,67832,999,1820,.65648243E-3,.17858E-3,0
STARLINK-36659,2026-033N,2026-06-07T04:32:11.660640,15.27598875,.00010076,43.0034,121.4377,128.1299,231.9644,0,U,67833,999,1836,.78781752E-3,.21492E-3,0
