STARLINK-36792          
1 67804U 26032H   26157.99827426  .00025918  00000+0  80220-3 0  9995
2 67804  97.2885 345.8492 0000844 111.3408 248.7925 15.33452938 18644
STARLINK-36782          
1 67805U 26032J   26157.76442389  .00032146  00000+0  99358-3 0  9995
2 67805  97.2895 345.7093 0000968 139.9117 220.2198 15.33453108 18616
STARLINK-36389          
1 67806U 26032K   26158.24297560  .00019922  00000+0  61755-3 0  9996
2 67806  97.2833 346.1266 0001051 297.6095  62.5041 15.33457275 18687
STARLINK-36382          
1 67807U 26032L   26158.24025956  .00022684  00000+0  70254-3 0  9998
2 67807  97.2849 346.1293 0000384 273.2790  86.8409 15.33460206 18680
STARLINK-36811          
1 67808U 26032M   26157.76716245  .00030560  00000+0  94494-3 0  9997
2 67808  97.2875 345.7056 0001174 101.6377 258.4998 15.33450239 18613
STARLINK-36795          
1 67809U 26032N   26158.25113226  .00026735  00000+0  82709-3 0  9998
2 67809  97.2868 346.1194 0000998 261.2808  98.8322 15.33462129 18684
STARLINK-36807          
1 67810U 26032P   26157.50886153  .00028614  00000+0  88455-3 0  9995
2 67810  97.2850 345.4461 0002145  93.7413 266.4075 15.33470136 18575
STARLINK-36733          
1 67811U 26032Q   26158.27833487  .00039851  00000+0  12300-2 0  9993
2 67811  97.2847 346.2344 0001667  86.9150 273.2284 15.33449287 18695
STARLINK-36377          
1 67812U 26032R   26157.49254581  .00030732  00000+0  94968-3 0  9999
2 67812  97.2859 345.4644 0002536 112.6181 247.5330 15.33466677 18575
STARLINK-36732          
1 67813U 26032S   26158.28107062  .00019360  00000+0  60139-3 0  9996
2 67813  97.2880 346.2313 0001315  68.1310 292.0072 15.33395446 18691
STARLINK-36767          
1 67814U 26032T   26158.24569697  .00029731  00000+0  91915-3 0  9998
2 67814  97.2865 346.1261 0000566 201.2759 158.8461 15.33461981 18688
STARLINK-36797          
1 67815U 26032U   26157.51429764  .00026806  00000+0  82898-3 0  9998
2 67815  97.2858 345.4359 0002172  91.1892 268.9600 15.33471540 18578
STARLINK-36343          
1 67816U 26032V   26158.27289528  .00034294  00000+0  10596-2 0  9990
2 67816  97.2865 346.2426 0001865  84.4235 275.7220 15.33450228 18692
STARLINK-36756          
1 67817U 26032W   26157.76172377  .00028529  00000+0  88247-3 0  9990
2 67817  97.2879 345.7117 0000885 113.1517 246.9819 15.33452363 18600
STARLINK-36346          
1 67818U 26032X   26158.27017610  .00023980  00000+0  74255-3 0  9996
2 67818  97.2875 346.2500 0002657  72.0352 288.1180 15.33451273 18695
STARLINK-36788          
1 67819U 26032Y   26158.23482986  .00024846  00000+0  76935-3 0  9994
2 67819  97.2858 346.1412 0001820  99.2005 260.9443 15.33447288 18685
STARLINK-36353          
1 67820U 26032Z   26157.96836446  .00037572  00000+0  11602-2 0  9998
2 67820  97.2863 345.8921 0000254 274.8414  85.2799 15.33449321 18647
STARLINK-36644          
1 67821U 26033A   26158.19543847  .00021083  00000+0  77260-3 0  9999
2 67821  43.0018 121.4984 0000736 258.0187 102.0582 15.27617414 18362
STARLINK-36643          
1 67822U 26033B   26157.63268114  .00030364  00000+0  11076-2 0  9993
2 67822  42.9985 125.0273 0000749 268.8070  91.2695 15.27602943 18274
STARLINK-36646          
1 67823U 26033C   26158.20188166  .00027613  00000+0  10077-2 0  9999
2 67823  43.0018 121.5467 0000373 237.8324 122.2492 15.27628200 18365
STARLINK-36647          
1 67824U 26033D   26158.19161094  .00015677  00000+0  57796-3 0  9996
2 67824  43.0065 121.4727 0000175 221.2877 138.7962 15.27581242 18364
STARLINK-36648          
1 67825U 26033E   26158.17361134  .00032090  00000+0  11689-2 0  9990
2 67825  42.9997 121.3176 0001245 246.0467 114.0254 15.27626972 18364
STARLINK-35865          
1 67826U 26033F   26158.19929952  .00010062  00000+0  37458-3 0  9999
2 67826  43.0062 121.5220 0000223 264.0475  96.0351 15.27586261 18369
STARLINK-36289          
1 67827U 26033G   26157.63909249  .00023854  00000+0  87246-3 0  9998
2 67827  43.0029 125.0705 0003735 277.4429  82.5998 15.27616958 18272
STARLINK-36670          
1 67828U 26033H   26157.04676329  .00024563  00000+0  89909-3 0  9990
2 67828  43.0029 128.3606 0002117 261.0391  99.0221 15.27580980 18186
STARLINK-36144          
1 67829U 26033J   26157.63010187  .00037202  00000+0  13533-2 0  9993
2 67829  43.0028 124.9978 0002604 265.1448  94.9107 15.27609513 18270
STARLINK-36611          
1 67830U 26033K   26158.17116982  .00017543  00000+0  64481-3 0  9990
2 67830  43.0009 122.1794 0001599 280.4699  79.5973 15.27615469 18353
STARLINK-36661          
1 67831U 26033L   26158.16732975  .00019182  00000+0  70435-3 0  9993
2 67831  43.0130 122.1558 0002911 262.3705  97.6817 15.27598057 18354
STARLINK-36662          
1 67832U 26033M   26156.63483478  .00017858  00000+0  65648-3 0  9993
2 67832  43.0052 123.3637 0001823 275.6320  84.4324 15.27599887 18203
STARLINK-36659          
1 67833U 26033N   26158.18902385  .00021492  00000+0  78782-3 0  9991
2 67833  43.0034 121.4377 0001007 128.1299 231.9644 15.27598875 18362
